GLOBALSTAR M057         
1 25943U 99058A   25199.53252317 -.00000040  00000+0  47740-3 0  9997
2 25943  51.9973 259.2493 0002835  87.4721 272.6453 12.24826514170776
GLOBALSTAR M059         
1 25944U 99058B   25199.51956306 -.00000107  00000+0 -25693-3 0  9993
2 25944  52.0014 122.4087 0001082  18.4493 153.0521 11.99980006577809
GLOBALSTAR M056         
1 25945U 99058C   25199.56006381 -.00000141  00000+0 -62265-3 0  9992
2 25945  51.9958 123.4533 0000575 272.3406 258.8677 12.04780964166452
GLOBALSTAR M039         
1 25961U 99062A   25199.59945231 -.00000074  00000+0  16603-3 0  9993
2 25961  51.9824 173.0403 0002835  54.0657 306.0472 12.62330076184181
GLOBALSTAR M029         
1 25963U 99062C   25199.49886201 -.00000078  00000+0  10126-3 0  9993
2 25963  51.9824  10.4740 0002673 161.2850 231.9360 11.99898472172881
GLOBALSTAR M061         
1 25964U 99062D   25199.49159619 -.00000116  00000+0 -58215-3 0  9995
2 25964  51.9791 114.4644 0006596  23.6952 147.6197 11.76775936124865
